{
  "type": "FeatureCollection",
  "features": [
    {
      "type": "Feature",
      "properties": {
        "norad_id": 43567,
        "name": "GSAT0220 (GALILEO 24)",
        "group": "gnss",
        "lat": -56.17082763606701,
        "lon": -119.32869931559424,
        "alt_km": 23211.651084042747,
        "timestamp": "2025-12-18T21:31:51.243306+00:00",
        "meta_object_name": "GSAT0220 (GALILEO 24)",
        "meta_object_id": "2018-060D",
        "meta_epoch": "2025-12-17T07:09:30.654144",
        "meta_mean_motion": 1.70475982,
        "meta_eccentricity": 0.00060597,
        "meta_inclination": 57.2291,
        "meta_ra_of_asc_node": 346.699,
        "meta_arg_of_pericenter": 286.0855,
        "meta_mean_anomaly": 73.8638,
        "meta_ephemeris_type": 0,
        "meta_classification_type": "U",
        "meta_norad_cat_id": 43567,
        "meta_element_set_no": 999,
        "meta_rev_at_epoch": 4607,
        "meta_bstar": 0,
        "meta_mean_motion_dot": -7.8e-07,
        "meta_mean_motion_ddot": 0,
        "tle_line1": "1 43567U 18060D   25351.29827146 -.00000078  00000+0  00000+0 0  9999",
        "tle_line2": "2 43567  57.2291 346.6990 0006059 286.0855  73.8638  1.70475982 46079"
      },
      "geometry": {
        "type": "Point",
        "coordinates": [
          -119.32869931559424,
          -56.17082763606701
        ]
      }
    },
    {
      "type": "Feature",
      "properties": {
        "norad_id": 43581,
        "name": "BEIDOU-3 M5 (C23)",
        "group": "gnss",
        "lat": 32.148735727372134,
        "lon": -18.667768681451985,
        "alt_km": 21528.843155654267,
        "timestamp": "2025-12-18T21:31:51.243318+00:00",
        "meta_object_name": "BEIDOU-3 M5 (C23)",
        "meta_object_id": "2018-062A",
        "meta_epoch": "2025-12-17T01:53:59.361792",
        "meta_mean_motion": 1.86228923,
        "meta_eccentricity": 0.00020674,
        "meta_inclination": 54.0895,
        "meta_ra_of_asc_node": 188.4955,
        "meta_arg_of_pericenter": 356.8892,
        "meta_mean_anomaly": 3.1782,
        "meta_ephemeris_type": 0,
        "meta_classification_type": "U",
        "meta_norad_cat_id": 43581,
        "meta_element_set_no": 999,
        "meta_rev_at_epoch": 5024,
        "meta_bstar": 0,
        "meta_mean_motion_dot": 1.14e-06,
        "meta_mean_motion_ddot": 0,
        "tle_line1": "1 43581U 18062A   25351.07915928  .00000114  00000+0  00000+0 0  9999",
        "tle_line2": "2 43581  54.0895 188.4955 0002067 356.8892   3.1782  1.86228923 50243"
      },
      "geometry": {
        "type": "Point",
        "coordinates": [
          -18.667768681451985,
          32.148735727372134
        ]
      }
    },
    {
      "type": "Feature",
      "properties": {
        "norad_id": 43582,
        "name": "BEIDOU-3 M6 (C24)",
        "group": "gnss",
        "lat": -38.84327044413483,
        "lon": 44.15083675635109,
        "alt_km": 21554.65097782568,
        "timestamp": "2025-12-18T21:31:51.243329+00:00",
        "meta_object_name": "BEIDOU-3 M6 (C24)",
        "meta_object_id": "2018-062B",
        "meta_epoch": "2025-12-18T00:23:12.259968",
        "meta_mean_motion": 1.86229952,
        "meta_eccentricity": 0.00078372,
        "meta_inclination": 54.0891,
        "meta_ra_of_asc_node": 188.4528,
        "meta_arg_of_pericenter": 47.7556,
        "meta_mean_anomaly": 312.3777,
        "meta_ephemeris_type": 0,
        "meta_classification_type": "U",
        "meta_norad_cat_id": 43582,
        "meta_element_set_no": 999,
        "meta_rev_at_epoch": 5026,
        "meta_bstar": 0,
        "meta_mean_motion_dot": 1.1e-06,
        "meta_mean_motion_ddot": 0,
        "tle_line1": "1 43582U 18062B   25352.01611412  .00000110  00000+0  00000+0 0  9992",
        "tle_line2": "2 43582  54.0891 188.4528 0007837  47.7556 312.3777  1.86229952 50263"
      },
      "geometry": {
        "type": "Point",
        "coordinates": [
          44.15083675635109,
          -38.84327044413483
        ]
      }
    },
    {
      "type": "Feature",
      "properties": {
        "norad_id": 43602,
        "name": "BEIDOU-3 M12 (C26)",
        "group": "gnss",
        "lat": -54.08495643903776,
        "lon": 101.12240362701255,
        "alt_km": 21550.278647525036,
        "timestamp": "2025-12-18T21:31:51.243340+00:00",
        "meta_object_name": "BEIDOU-3 M12 (C26)",
        "meta_object_id": "2018-067A",
        "meta_epoch": "2025-12-17T22:53:45.555072",
        "meta_mean_motion": 1.86227791,
        "meta_eccentricity": 0.00092249,
        "meta_inclination": 54.1833,
        "meta_ra_of_asc_node": 187.186,
        "meta_arg_of_pericenter": 41.0055,
        "meta_mean_anomaly": 319.1284,
        "meta_ephemeris_type": 0,
        "meta_classification_type": "U",
        "meta_norad_cat_id": 43602,
        "meta_element_set_no": 999,
        "meta_rev_at_epoch": 4974,
        "meta_bstar": 0,
        "meta_mean_motion_dot": 1.1e-06,
        "meta_mean_motion_ddot": 0,
        "tle_line1": "1 43602U 18067A   25351.95399948  .00000110  00000+0  00000+0 0  9999",
        "tle_line2": "2 43602  54.1833 187.1860 0009224  41.0055 319.1284  1.86227791 49749"
      },
      "geometry": {
        "type": "Point",
        "coordinates": [
          101.12240362701255,
          -54.08495643903776
        ]
      }
    },
    {
      "type": "Feature",
      "properties": {
        "norad_id": 43603,
        "name": "BEIDOU-3 M11 (C25)",
        "group": "gnss",
        "lat": -1.8198929014441565,
        "lon": 8.439573358392812,
        "alt_km": 21541.78742950347,
        "timestamp": "2025-12-18T21:31:51.243351+00:00",
        "meta_object_name": "BEIDOU-3 M11 (C25)",
        "meta_object_id": "2018-067B",
        "meta_epoch": "2025-12-17T00:21:01.872864",
        "meta_mean_motion": 1.86227285,
        "meta_eccentricity": 0.00055921,
        "meta_inclination": 54.1804,
        "meta_ra_of_asc_node": 187.182,
        "meta_arg_of_pericenter": 36.5835,
        "meta_mean_anomaly": 323.5212,
        "meta_ephemeris_type": 0,
        "meta_classification_type": "U",
        "meta_norad_cat_id": 43603,
        "meta_element_set_no": 999,
        "meta_rev_at_epoch": 4975,
        "meta_bstar": 0,
        "meta_mean_motion_dot": 1.14e-06,
        "meta_mean_motion_ddot": 0,
        "tle_line1": "1 43603U 18067B   25351.01460501  .00000114  00000+0  00000+0 0  9995",
        "tle_line2": "2 43603  54.1804 187.1820 0005592  36.5835 323.5212  1.86227285 49752"
      },
      "geometry": {
        "type": "Point",
        "coordinates": [
          8.439573358392812,
          -1.8198929014441565
        ]
      }
    },
    {
      "type": "Feature",
      "properties": {
        "norad_id": 43622,
        "name": "BEIDOU-3 M13 (C32)",
        "group": "gnss",
        "lat": -25.61711316552806,
        "lon": -92.8575821329141,
        "alt_km": 21530.822618789305,
        "timestamp": "2025-12-18T21:31:51.243364+00:00",
        "meta_object_name": "BEIDOU-3 M13 (C32)",
        "meta_object_id": "2018-072A",
        "meta_epoch": "2025-12-18T01:04:45.751872",
        "meta_mean_motion": 1.86231057,
        "meta_eccentricity": 0.00059817,
        "meta_inclination": 56.4642,
        "meta_ra_of_asc_node": 68.6443,
        "meta_arg_of_pericenter": 299.083,
        "meta_mean_anomaly": 60.8858,
        "meta_ephemeris_type": 0,
        "meta_classification_type": "U",
        "meta_norad_cat_id": 43622,
        "meta_element_set_no": 999,
        "meta_rev_at_epoch": 4928,
        "meta_bstar": 0,
        "meta_mean_motion_dot": -6.7e-07,
        "meta_mean_motion_ddot": 0,
        "tle_line1": "1 43622U 18072A   25352.04497398 -.00000067  00000+0  00000+0 0  9998",
        "tle_line2": "2 43622  56.4642  68.6443 0005981 299.0830  60.8858  1.86231057 49282"
      },
      "geometry": {
        "type": "Point",
        "coordinates": [
          -92.8575821329141,
          -25.61711316552806
        ]
      }
    },
    {
      "type": "Feature",
      "properties": {
        "norad_id": 43623,
        "name": "BEIDOU-3 M14 (C33)",
        "group": "gnss",
        "lat": -45.31947166947023,
        "lon": 26.593427745748773,
        "alt_km": 21525.367794200254,
        "timestamp": "2025-12-18T21:31:51.243376+00:00",
        "meta_object_name": "BEIDOU-3 M14 (C33)",
        "meta_object_id": "2018-072B",
        "meta_epoch": "2025-12-17T08:57:48.957984",
        "meta_mean_motion": 1.86231002,
        "meta_eccentricity": 0.00033285,
        "meta_inclination": 56.4654,
        "meta_ra_of_asc_node": 68.6605,
        "meta_arg_of_pericenter": 332.8139,
        "meta_mean_anomaly": 27.1942,
        "meta_ephemeris_type": 0,
        "meta_classification_type": "U",
        "meta_norad_cat_id": 43623,
        "meta_element_set_no": 999,
        "meta_rev_at_epoch": 4926,
        "meta_bstar": 0,
        "meta_mean_motion_dot": -7.3e-07,
        "meta_mean_motion_ddot": 0,
        "tle_line1": "1 43623U 18072B   25351.37348331 -.00000073  00000+0  00000+0 0  9993",
        "tle_line2": "2 43623  56.4654  68.6605 0003328 332.8139  27.1942  1.86231002 49265"
      },
      "geometry": {
        "type": "Point",
        "coordinates": [
          26.593427745748773,
          -45.31947166947023
        ]
      }
    }
  ]
}